<?xml version="1.0" encoding="UTF-8" standalone="no" ?>
<q:quakeml xmlns:q="http://quakeml.org/xmlns/quakeml/1.2" xmlns="http://quakeml.org/xmlns/bed/1.2" xmlns:catalog="http://anss.org/xmlns/catalog/0.1" xmlns:tensor="http://anss.org/xmlns/tensor/0.1">

  <eventParameters xmlns="http://quakeml.org/xmlns/bed/1.2" publicID="quakeml:us.anss.org/eventparameters/20003k7a/1449880986">
    <comment>
      <text>HYDRA - us</text>
    </comment>
    <event catalog:dataid="us20003k7a" catalog:datasource="us" catalog:eventid="20003k7a" catalog:eventsource="us" publicID="quakeml:us.anss.org/event/20003k7a">
      <description>
        <text>At least 15 people killed, 34 injured, 4 missing, more than 16,646 displaced and 1,069 houses destroyed and 1,791 damaged from the earthquake and tsunami in Coquimbo, Valparaiso and Region Metropolitana. A landslide occurred at Canela. One person died of a heart attack while running out of a building at Beccar, Argentina. Felt (IX) at Illapel; (VIII) at Coquimbo, La Serena and Ovalle; (VII) at Andacollo, El Quisco, La Calera, La Ligua, Los Andes, Los Vilos, Rancagua, San Antonio, Santiago and Tiltil. Felt widely from Arica to Valdivia. Felt (VI) at San Juan; (V) at La Rioja and San Martin; (IV) at Cordoba, Mendoza and San Rafael, Argentina. Felt (II) at Sao Paulo, Brazil and at Asuncion, Paraguay. Felt at Lima, Peru and at Montevideo and Punta del Este, Uruguay. A Pacific-wide tsunami was generated with maximum wave amplitudes in meters recorded at the following selected tide stations: 4.75 at Coquimbo, 1.86 at Quintero, 1.78 at Valparaiso, 1.28 at Talcahuano, 1.21 on Juan Fernandez Islands, 1.14 at Caldera, 1.09 at Chanaral, 1.04 at San Antonio, 0.88 at Constitucion, 0.83 on Easter Island, 0.77 at Huasco, 0.58 at Arica and 0.52 at Antofagasta, Chile; 0.67 at Pago Pago, American Samoa; 0.15 at Quepos, Costa Rica; 0.56 on Isla Santa Cruz, Ecuador; 1.37 on Nuku Hiva, French Polynesia; 0.26 at Kushimoto, Japan; 0.37 at Puerto Angel, Mexico; 0.16 at Ouinne, New Caledonia; 0.35 on Chatham Islands, New Zealand; 0.55 at La Punta, Peru; 0.20 at Apia, Samoa; 0.09 at Nuku`alofa, Tonga; 0.27 at King Cove, Alaska, USA; 0.34 at Ventura, California; 0.90 at Hilo, Hawaii; 0.21 on Efate, Vanuatu.



</text>
        <type>felt report</type>
      </description>
      <description>
        <text>OFFSHORE COQUIMBO, CHILE</text>
        <type>Flinn-Engdahl region</type>
      </description>
      <description>
        <text>48 km (29 miles) W of Illapel, Chile (pop 22816)
69 km (42 miles) WNW of Salamanca, Chile (pop 13265)
106 km (65 miles) NNW of La Ligua, Chile (pop 24857)
116 km (72 miles) SSW of Ovalle, Chile (pop 77138)
230 km (142 miles) NNW of Santiago, Chile (pop 4837295)
</text>
        <type>nearest cities</type>
      </description>
      <focalMechanism catalog:dataid="us_20003k7a_mww" catalog:datasource="us" publicID="quakeml:us.anss.org/focalmechanism/20003k7a/mww">
        <momentTensor publicID="quakeml:us.anss.org/momenttensor/20003k7a/mww">
          <derivedOriginID>quakeml:us.anss.org/origin/20003k7a/mww</derivedOriginID>
          <momentMagnitudeID>quakeml:us.anss.org/magnitude/20003k7a/mww</momentMagnitudeID>
          <scalarMoment>
            <value>3.19e+021</value>
          </scalarMoment>
          <tensor>
            <Mrr>
              <value>1.915e+021</value>
            </Mrr>
            <Mtt>
              <value>3.5e+019</value>
            </Mtt>
            <Mpp>
              <value>-1.949e+021</value>
            </Mpp>
            <Mrt>
              <value>-3.6e+019</value>
            </Mrt>
            <Mrp>
              <value>-2.536e+021</value>
            </Mrp>
            <Mtp>
              <value>1.19e+020</value>
            </Mtp>
          </tensor>
          <doubleCouple>0.9782</doubleCouple>
          <clvd>0.0218</clvd>
        </momentTensor>
        <triggeringOriginID>quakeml:us.anss.org/origin/20003k7a</triggeringOriginID>
        <nodalPlanes>
          <nodalPlane1>
            <strike>
              <value>180</value>
            </strike>
            <dip>
              <value>71</value>
            </dip>
            <rake>
              <value>92</value>
            </rake>
          </nodalPlane1>
          <nodalPlane2>
            <strike>
              <value>353</value>
            </strike>
            <dip>
              <value>19</value>
            </dip>
            <rake>
              <value>83</value>
            </rake>
          </nodalPlane2>
        </nodalPlanes>
        <principalAxes>
          <tAxis>
            <azimuth>
              <value>93</value>
            </azimuth>
            <plunge>
              <value>64</value>
            </plunge>
            <length>
              <value>3.17306e+021</value>
            </length>
          </tAxis>
          <pAxis>
            <azimuth>
              <value>268</value>
            </azimuth>
            <plunge>
              <value>26</value>
            </plunge>
            <length>
              <value>-3.20796e+021</value>
            </length>
          </pAxis>
          <nAxis>
            <azimuth>
              <value>359</value>
            </azimuth>
            <plunge>
              <value>2</value>
            </plunge>
            <length>
              <value>3.48949e+019</value>
            </length>
          </nAxis>
        </principalAxes>
        <evaluationMode>manual</evaluationMode>
        <evaluationStatus>reviewed</evaluationStatus>
        <creationInfo>
          <agencyID>us</agencyID>
          <agencyURI>smi:anss.org/metadata/agencyid/us</agencyURI>
          <creationTime>2015-09-16T23:33:27Z</creationTime>
        </creationInfo>
        <tensor:waveformFit xmlns="">0.00</tensor:waveformFit>
      </focalMechanism>
      <focalMechanism catalog:dataid="us_20003k7a_mwc_gcmt" catalog:datasource="us" publicID="quakeml:us.anss.org/focalmechanism/gcmt_20003k7a/mwc">
        <momentTensor publicID="quakeml:us.anss.org/momenttensor/gcmt_20003k7a/mwc">
          <derivedOriginID>quakeml:us.anss.org/origin/gcmt_20003k7a/mwc</derivedOriginID>
          <momentMagnitudeID>quakeml:us.anss.org/magnitude/gcmt_20003k7a/mwc</momentMagnitudeID>
          <scalarMoment>
            <value>2.86e+021</value>
          </scalarMoment>
          <tensor>
            <Mrr>
              <value>1.95e+021</value>
            </Mrr>
            <Mtt>
              <value>-4.9e+019</value>
            </Mtt>
            <Mpp>
              <value>-1.9e+021</value>
            </Mpp>
            <Mrt>
              <value>5.31e+020</value>
            </Mrt>
            <Mrp>
              <value>-2.04e+021</value>
            </Mrp>
            <Mtp>
              <value>7.9e+019</value>
            </Mtp>
          </tensor>
          <doubleCouple>0.9373</doubleCouple>
          <clvd>0.0627</clvd>
        </momentTensor>
        <triggeringOriginID>quakeml:us.anss.org/origin/20003k7a</triggeringOriginID>
        <nodalPlanes>
          <nodalPlane1>
            <strike>
              <value>169</value>
            </strike>
            <dip>
              <value>69</value>
            </dip>
            <rake>
              <value>84</value>
            </rake>
          </nodalPlane1>
          <nodalPlane2>
            <strike>
              <value>5</value>
            </strike>
            <dip>
              <value>22</value>
            </dip>
            <rake>
              <value>106</value>
            </rake>
          </nodalPlane2>
        </nodalPlanes>
        <principalAxes>
          <tAxis>
            <azimuth>
              <value>68</value>
            </azimuth>
            <plunge>
              <value>66</value>
            </plunge>
            <length>
              <value>2.90045e+021</value>
            </length>
          </tAxis>
          <pAxis>
            <azimuth>
              <value>264</value>
            </azimuth>
            <plunge>
              <value>24</value>
            </plunge>
            <length>
              <value>-2.80957e+021</value>
            </length>
          </pAxis>
          <nAxis>
            <azimuth>
              <value>171</value>
            </azimuth>
            <plunge>
              <value>6</value>
            </plunge>
            <length>
              <value>-9.08807e+019</value>
            </length>
          </nAxis>
        </principalAxes>
        <evaluationMode>manual</evaluationMode>
        <evaluationStatus>reviewed</evaluationStatus>
        <creationInfo>
          <agencyID>gcmt</agencyID>
          <agencyURI>smi:us.anss.org/metadata/agencyid/gcmt</agencyURI>
          <creationTime>2015-09-17T03:56:56Z</creationTime>
        </creationInfo>
        <tensor:waveformFit xmlns="">0.00</tensor:waveformFit>
      </focalMechanism>
      <amplitude publicID="quakeml:us.anss.org/amp/n4_060a_bhz_--/mb">
        <genericAmplitude>
          <value>2.10185e-006</value>
        </genericAmplitude>
        <type>AMB</type>
        <unit>m</unit>
        <period>
          <value>1.0000</value>
        </period>
        <timeWindow>
          <begin>0.00</begin>
          <end>140.00</end>
          <reference>2015-09-16T23:04:09.02Z</reference>
        </timeWindow>
        <pickID>quakeml:us.anss.org/pick/20003k7a/us_3222_bpid-2000437627</pickID>
        <waveformID channelCode="BHZ" locationCode="--" networkCode="N4" stationCode="060A"/>
        <scalingTime>
          <value>2015-09-16T23:05:00.445Z</value>
        </scalingTime>
        <magnitudeHint>mb</magnitudeHint>
        <evaluationMode>automatic</evaluationMode>
      </amplitude>
      <amplitude publicID="quakeml:us.anss.org/amp/ta_109c_bhz_--/mb">
        <genericAmplitude>
          <value>1.75495e-006</value>
        </genericAmplitude>
        <type>AMB</type>
        <unit>m</unit>
        <period>
          <value>1.8500</value>
        </period>
        <timeWindow>
          <begin>0.00</begin>
          <end>140.00</end>
          <reference>2015-09-16T23:06:05.42Z</reference>
        </timeWindow>
        <waveformID channelCode="BHZ" locationCode="--" networkCode="TA" stationCode="109C"/>
        <scalingTime>
          <value>2015-09-16T23:06:50.97Z</value>
        </scalingTime>
        <magnitudeHint>mb</magnitudeHint>
        <evaluationMode>automatic</evaluationMode>
      </amplitude>
      <amplitude publicID="quakeml:us.anss.org/amp/ae_113a_hhz_--/mb">
        <genericAmplitude>
          <value>2.26045e-006</value>
        </genericAmplitude>
        <type>AMB</type>
        <unit>m</unit>
        <period>
          <value>2.0400</value>
        </period>
        <timeWindow>
          <begin>0.00</begin>
          <end>140.00</end>
          <reference>2015-09-16T23:05:54.65Z</reference>
        </timeWindow>
        <waveformID channelCode="HHZ" locationCode="--" networkCode="AE" stationCode="113A"/>
        <scalingTime>
          <value>2015-09-16T23:07:22.18Z</value>
        </scalingTime>
        <magnitudeHint>mb</magnitudeHint>
        <evaluationMode>automatic</evaluationMode>
      </amplitude>
      <amplitude publicID="quakeml:us.anss.org/amp/ta_121a_bhz_--/mb">
        <genericAmplitude>
          <value>1.88165e-006</value>
        </genericAmplitude>
        <type>AMB</type>
        <unit>m</unit>
        <period>
          <value>1.1500</value>
        </period>
        <timeWindow>
          <begin>0.00</begin>
          <end>140.00</end>
          <reference>2015-09-16T23:05:37.17Z</reference>
        </timeWindow>
        <waveformID channelCode="BHZ" locationCode="--" networkCode="TA" stationCode="121A"/>
        <scalingTime>
          <value>2015-09-16T23:06:50.945Z</value>
        </scalingTime>
        <magnitudeHint>mb</magnitudeHint>
        <evaluationMode>automatic</evaluationMode>
      </amplitude>
      <amplitude publicID="quakeml:us.anss.org/amp/n4_143b_bhz_--/mb">
        <genericAmplitude>
          <value>6.04575e-006</value>
        </genericAmplitude>
        <type>AMB</type>
        <unit>m</unit>
        <period>
          <value>1.1000</value>
        </period>
        <timeWindow>
          <begin>0.00</begin>
          <end>140.00</end>
          <reference>2015-09-16T23:05:01.05Z</reference>
        </timeWindow>
        <pickID>quakeml:us.anss.org/pick/20003k7a/us_3222_bpid-2000437656</pickID>
        <waveformID channelCode="BHZ" locationCode="--" networkCode="N4" stationCode="143B"/>
        <scalingTime>
          <value>2015-09-16T23:06:22Z</value>
        </scalingTime>
        <magnitudeHint>mb</magnitudeHint>
        <evaluationMode>automatic</evaluationMode>
      </amplitude>
      <amplitude publicID="quakeml:us.anss.org/amp/n4_146b_bhz_--/mb">
        <genericAmplitude>
          <value>3.4503e-006</value>
        </genericAmplitude>
        <type>AMB</type>
        <unit>m</unit>
        <period>
          <value>1.3000</value>
        </period>
        <timeWindow>
          <begin>0.00</begin>
          <end>140.00</end>
          <reference>2015-09-16T23:04:56.65Z</reference>
        </timeWindow>
        <waveformID channelCode="BHZ" locationCode="--" networkCode="N4" stationCode="146B"/>
        <scalingTime>
          <value>2015-09-16T23:05:51.425Z</value>
        </scalingTime>
        <magnitudeHint>mb</magnitudeHint>
        <evaluationMode>automatic</evaluationMode>
      </amplitude>
      <amplitude publicID="quakeml:us.anss.org/amp/n4_152a_bhz_--/mb">
        <genericAmplitude>
          <value>8.084e-007</value>
        </genericAmplitude>
        <type>AMB</type>
        <unit>m</unit>
        <period>
          <value>0.9500</value>
        </period>
        <timeWindow>
          <begin>0.00</begin>
          <end>140.00</end>
          <reference>2015-09-16T23:04:49.85Z</reference>
        </timeWindow>
        <pickID>quakeml:us.anss.org/pick/20003k7a/us_3222_bpid-1000526998</pickID>
        <waveformID channelCode="BHZ" locationCode="--" networkCode="N4" stationCode="152A"/>
        <scalingTime>
          <value>2015-09-16T23:05:42.275Z</value>
        </scalingTime>
        <magnitudeHint>mb</magnitudeHint>
        <evaluationMode>automatic</evaluationMode>
      </amplitude>
      <amplitude publicID="quakeml:us.anss.org/amp/n4_154a_bhz_--/mb">
        <genericAmplitude>
          <value>2.50275e-006</value>
        </genericAmplitude>
        <type>AMB</type>
        <unit>m</unit>
        <period>
          <value>1.0500</value>
        </period>
        <timeWindow>
          <begin>0.00</begin>
          <end>140.00</end>
          <reference>2015-09-16T23:04:48.19Z</reference>
        </timeWindow>
        <waveformID channelCode="BHZ" locationCode="--" networkCode="N4" stationCode="154A"/>
        <scalingTime>
          <value>2015-09-16T23:05:40.315Z</value>
        </scalingTime>
        <magnitudeHint>mb</magnitudeHint>
        <evaluationMode>automatic</evaluationMode>
      </amplitude>
      <amplitude publicID="quakeml:us.anss.org/amp/ta_214a_bhz_--/mb">
        <genericAmplitude>
          <value>4.56015e-006</value>
        </genericAmplitude>
        <type>AMB</type>
        <unit>m</unit>
        <period>
          <value>1.8500</value>
        </period>
        <timeWindow>
          <begin>0.00</begin>
          <end>140.00</end>
          <reference>2015-09-16T23:05:48.12Z</reference>
        </timeWindow>
        <waveformID channelCode="BHZ" locationCode="--" networkCode="TA" stationCode="214A"/>
        <scalingTime>
          <value>2015-09-16T23:06:59.845Z</value>
        </scalingTime>
        <magnitudeHint>mb</magnitudeHint>
        <evaluationMode>automatic</evaluationMode>
      </amplitude>
      <amplitude publicID="quakeml:us.anss.org/amp/n4_237b_bhz_--/mb">
        <genericAmplitude>
          <value>2.35115e-006</value>
        </genericAmplitude>
        <type>AMB</type>
        <unit>m</unit>
        <period>
          <value>1.0000</value>
        </period>
        <timeWindow>
          <begin>0.00</begin>
          <end>140.00</end>
          <reference>2015-09-16T23:05:05.32Z</reference>
        </timeWindow>
        <waveformID channelCode="BHZ" locationCode="--" networkCode="N4" stationCode="237B"/>
        <scalingTime>
          <value>2015-09-16T23:05:58.47Z</value>
        </scalingTime>
        <magnitudeHint>mb</magnitudeHint>
        <evaluationMode>automatic</evaluationMode>
      </amplitude>
      <amplitude publicID="quakeml:us.anss.org/amp/n4_250a_bhz_--/mb">
        <genericAmplitude>
          <value>3.7313e-006</value>
        </genericAmplitude>
        <type>AMB</type>
        <unit>m</unit>
        <period>
          <value>1.5000</value>
        </period>
        <timeWindow>
          <begin>0.00</begin>
          <end>140.00</end>
          <reference>2015-09-16T23:04:47.62Z</reference>
        </timeWindow>
        <waveformID channelCode="BHZ" locationCode="--" networkCode="N4" stationCode="250A"/>
        <scalingTime>
          <value>2015-09-16T23:05:59.07Z</value>
        </scalingTime>
        <magnitudeHint>mb</magnitudeHint>
        <evaluationMode>automatic</evaluationMode>
      </amplitude>
      <amplitude publicID="quakeml:us.anss.org/amp/n4_255a_bhz_--/mb">
        <genericAmplitude>
          <value>2.6774e-006</value>
        </genericAmplitude>
        <type>AMB</type>
        <unit>m</unit>
        <period>
          <value>1.3500</value>
        </period>
        <timeWindow>
          <begin>0.00</begin>
          <end>140.00</end>
          <reference>2015-09-16T23:04:43.32Z</reference>
        </timeWindow>
        <waveformID channelCode="BHZ" locationCode="--" networkCode="N4" stationCode="255A"/>
        <scalingTime>
          <value>2015-09-16T23:05:54.27Z</value>
        </scalingTime>
        <magnitudeHint>mb</magnitudeHint>
        <evaluationMode>automatic</evaluationMode>
      </amplitude>
      <amplitude publicID="quakeml:us.anss.org/amp/ae_319a_hhz_--/mb">
        <genericAmplitude>
          <value>2.74175e-006</value>
        </genericAmplitude>
        <type>AMB</type>
        <unit>m</unit>
        <period>
          <value>1.4800</value>
        </period>
        <timeWindow>
          <begin>0.00</begin>
          <end>140.00</end>
          <reference>2015-09-16T23:05:35.35Z</reference>
        </timeWindow>
        <waveformID channelCode="HHZ" locationCode="--" networkCode="AE" stationCode="319A"/>
        <scalingTime>
          <value>2015-09-16T23:06:40.15Z</value>
        </scalingTime>
        <magnitudeHint>mb</magnitudeHint>
        <evaluationMode>automatic</evaluationMode>
      </amplitude>
      <amplitude publicID="quakeml:us.anss.org/amp/n4_342b_bhz_--/mb">
        <genericAmplitude>
          <value>1.01275e-005</value>
        </genericAmplitude>
        <type>AMB</type>
        <unit>m</unit>
        <period>
          <value>1.7000</value>
        </period>
        <timeWindow>
          <begin>0.00</begin>
          <end>140.00</end>
          <reference>2015-09-16T23:04:54.96Z</reference>
        </timeWindow>
        <waveformID channelCode="BHZ" locationCode="--" networkCode="N4" stationCode="342B"/>
        <scalingTime>
          <value>2015-09-16T23:05:42.91Z</value>
        </scalingTime>
        <magnitudeHint>mb</magnitudeHint>
        <evaluationMode>automatic</evaluationMode>
      </amplitude>
